$$SOE
2461288.500000000, A.D. 2026-Sep-05 00:00:00.0000, 5.394432727828269E+07, -3.006234826600795E+08, -3.099210852895322E+07,
2461295.500000000, A.D. 2026-Sep-12 00:00:00.0000, 6.612289576724854E+07, -2.952858836999927E+08, -2.920797179734124E+07,
2461302.500000000, A.D. 2026-Sep-19 00:00:00.0000, 7.818713745321357E+07, -2.894381901781315E+08, -2.737338746252912E+07,
2461309.500000000, A.D. 2026-Sep-26 00:00:00.0000, 9.011220449046047E+07, -2.830756982551979E+08, -2.549012482366888E+07,
2461316.500000000, A.D. 2026-Oct-03 00:00:00.0000, 1.018721681462983E+08, -2.761949261803555E+08, -2.356020132453330E+07,
2461323.500000000, A.D. 2026-Oct-10 00:00:00.0000, 1.134400630790229E+08, -2.687937604412333E+08, -2.158589593539530E+07,
2461330.500000000, A.D. 2026-Oct-17 00:00:00.0000, 1.247879495562437E+08, -2.608716068673813E+08, -1.956976143452573E+07,
2461337.500000000, A.D. 2026-Oct-24 00:00:00.0000, 1.358869955710818E+08, -2.524295447659287E+08, -1.751463517812707E+07,
2461344.500000000, A.D. 2026-Oct-31 00:00:00.0000, 1.467075807469977E+08, -2.434704817406442E+08, -1.542364791614756E+07,
2461351.500000000, A.D. 2026-Nov-07 00:00:00.0000, 1.572194239188579E+08, -2.339993062214456E+08, -1.330023018677154E+07,
2461358.500000000, A.D. 2026-Nov-14 00:00:00.0000, 1.673917357735621E+08, -2.240230334340985E+08, -1.114811571787496E+07,
2461365.500000000, A.D. 2026-Nov-21 00:00:00.0000, 1.771933954251935E+08, -2.135509402784658E+08, -8.971341085685521E+06,
2461372.500000000, A.D. 2026-Nov-28 00:00:00.0000, 1.865931499869329E+08, -2.025946878578227E+08, -6.774241266946077E+06,
2461379.500000000, A.D. 2026-Dec-05 00:00:00.0000, 1.955598400677384E+08, -1.911684277314458E+08, -4.561440985936627E+06,
2461386.500000000, A.D. 2026-Dec-12 00:00:00.0000, 2.040626497970932E+08, -1.792888840175654E+08, -2.337841193214856E+06,
2461393.500000000, A.D. 2026-Dec-19 00:00:00.0000, 2.120713769565949E+08, -1.669754065691468E+08, -1.086001678954884E+05,
2461400.500000000, A.D. 2026-Dec-26 00:00:00.0000, 2.195567195066172E+08, -1.542499915128428E+08, 2.120890912854731E+06,
2461407.500000000, A.D. 2027-Jan-02 00:00:00.0000, 2.264905741667188E+08, -1.411372651947550E+08, 4.345037960220084E+06,
2461414.500000000, A.D. 2027-Jan-09 00:00:00.0000, 2.328463415482532E+08, -1.276644280521499E+08, 6.558079394582197E+06,
2461421.500000000, A.D. 2027-Jan-16 00:00:00.0000, 2.385992313681833E+08, -1.138611558870404E+08, 8.754126689457648E+06,
2461428.500000000, A.D. 2027-Jan-23 00:00:00.0000, 2.437265605781545E+08, -9.975945725343388E+07, 1.092720951389060E+07,
2461435.500000000, A.D. 2027-Jan-30 00:00:00.0000, 2.482080369268157E+08, -8.539348706396484E+07, 1.307132472446932E+07,
2461442.500000000, A.D. 2027-Feb-06 00:00:00.0000, 2.520260205732337E+08, -7.079931765276277E+07, 1.518048827043061E+07,
2461449.500000000, A.D. 2027-Feb-13 00:00:00.0000, 2.551657557265900E+08, -5.601466924654610E+07, 1.724878906231411E+07,
2461456.500000000, A.D. 2027-Feb-20 00:00:00.0000, 2.576155629897537E+08, -4.107860539002205E+07, 1.927044373602339E+07,
2461463.500000000, A.D. 2027-Feb-27 00:00:00.0000, 2.593669877916001E+08, -2.603120272716089E+07, 2.123985061546049E+07,
2461470.500000000, A.D. 2027-Mar-06 00:00:00.0000, 2.604149032113257E+08, -1.091320059723978E+07, 2.315164142347101E+07,
2461477.500000000, A.D. 2027-Mar-13 00:00:00.0000, 2.607575624600280E+08, 4.234363326518901E+06, 2.500072976706462E+07,
2461484.500000000, A.D. 2027-Mar-20 00:00:00.0000, 2.603965985056604E+08, 1.937052172063877E+07, 2.678235524675582E+07,
2461491.500000000, A.D. 2027-Mar-27 00:00:00.0000, 2.593369714750235E+08, 3.445474116219652E+07, 2.849212209900109E+07,
2461498.500000000, A.D. 2027-Apr-03 00:00:00.0000, 2.575868662444369E+08, 4.944727190655577E+07, 3.012603152600681E+07,
2461505.500000000, A.D. 2027-Apr-10 00:00:00.0000, 2.551575441207290E+08, 6.430947602742811E+07, 3.168050712374292E+07,
2461512.500000000, A.D. 2027-Apr-17 00:00:00.0000, 2.520631538685139E+08, 7.900412705712537E+07, 3.315241307530081E+07,
2461519.500000000, A.D. 2027-Apr-24 00:00:00.0000, 2.483205084829879E+08, 9.349567551342501E+07, 3.453906502558392E+07,
2461526.500000000, A.D. 2027-May-01 00:00:00.0000, 2.439488350637966E+08, 1.077504762467496E+08, 3.583823378480541E+07,
2461533.500000000, A.D. 2027-May-08 00:00:00.0000, 2.389695055126974E+08, 1.217369757799707E+08, 3.704814228022075E+07,
2461540.500000000, A.D. 2027-May-15 00:00:00.0000, 2.334057539708766E+08, 1.354258595287019E+08, 3.816745653757291E+07,
2461547.500000000, A.D. 2027-May-22 00:00:00.0000, 2.272823865712427E+08, 1.487901566614844E+08, 3.919527134160007E+07,
2461554.500000000, A.D. 2027-May-29 00:00:00.0000, 2.206254934561656E+08, 1.618053026876963E+08, 4.013109095840359E+07,
2461561.500000000, A.D. 2027-Jun-05 00:00:00.0000, 2.134621697516274E+08, 1.744491654633960E+08, 4.097480594522184E+07,
2461568.500000000, A.D. 2027-Jun-12 00:00:00.0000, 2.058202484000013E+08, 1.867020383904936E+08, 4.172666712642021E+07,
2461575.500000000, A.D. 2027-Jun-19 00:00:00.0000, 1.977280484704906E+08, 1.985466037570413E+08, 4.238725752063632E+07,
2461582.500000000, A.D. 2027-Jun-26 00:00:00.0000, 1.892141421995434E+08, 2.099678701598977E+08, 4.295746294830444E+07,
2461589.500000000, A.D. 2027-Jul-03 00:00:00.0000, 1.803071429379297E+08, 2.209530883486528E+08, 4.343844201759858E+07,
2461596.500000000, A.D. 2027-Jul-10 00:00:00.0000, 1.710355152498733E+08, 2.314916497818955E+08, 4.383159611921327E+07,
2461603.500000000, A.D. 2027-Jul-17 00:00:00.0000, 1.614274076760040E+08, 2.415749719367967E+08, 4.413853996631086E+07,
2461610.500000000, A.D. 2027-Jul-24 00:00:00.0000, 1.515105081603624E+08, 2.511963740743549E+08, 4.436107310246274E+07,
2461617.500000000, A.D. 2027-Jul-31 00:00:00.0000, 1.413119218745353E+08, 2.603509470817080E+08, 4.450115270224367E+07,
2461624.500000000, A.D. 2027-Aug-07 00:00:00.0000, 1.308580701567857E+08, 2.690354215131125E+08, 4.456086802912816E+07,
2461631.500000000, A.D. 2027-Aug-14 00:00:00.0000, 1.201746068816324E+08, 2.772480361062341E+08, 4.454241690998775E+07,
2461638.500000000, A.D. 2027-Aug-21 00:00:00.0000, 1.092863512868315E+08, 2.849884055309061E+08, 4.444808399942636E+07,
2461645.500000000, A.D. 2027-Aug-28 00:00:00.0000, 9.821723900916369E+07, 2.922573903128142E+08, 4.428022067021123E+07,
2461652.500000000, A.D. 2027-Sep-04 00:00:00.0000, 8.699028843141587E+07, 2.990569727828707E+08, 4.404122684124143E+07,
2461659.500000000, A.D. 2027-Sep-11 00:00:00.0000, 7.562757923271853E+07, 3.053901394012496E+08, 4.373353477633098E+07,
2461666.500000000, A.D. 2027-Sep-18 00:00:00.0000, 6.415024162161478E+07, 3.112607695280606E+08, 4.335959471983065E+07,
2461673.500000000, A.D. 2027-Sep-25 00:00:00.0000, 5.257845491754825E+07, 3.166735310334824E+08, 4.292186225135264E+07,
2461680.500000000, A.D. 2027-Oct-02 00:00:00.0000, 4.093145410253518E+07, 3.216337830322639E+08, 4.242278724916829E+07,
2461687.500000000, A.D. 2027-Oct-09 00:00:00.0000, 2.922754303429218E+07, 3.261474858200035E+08, 4.186480434442124E+07,
2461694.500000000, A.D. 2027-Oct-16 00:00:00.0000, 1.748411318076897E+07, 3.302211178972658E+08, 4.125032473558088E+07,
2461701.500000000, A.D. 2027-Oct-23 00:00:00.0000, 5.717667061199747E+06, 3.338615999067092E+08, 4.058172921753784E+07,
2461708.500000000, A.D. 2027-Oct-30 00:00:00.0000, -6.056154181194531E+06, 3.370762258427414E+08, 3.986136232174949E+07,
2461715.500000000, A.D. 2027-Nov-06 00:00:00.0000, -1.782254106550868E+07, 3.398726023532212E+08, 3.909152765135933E+07,
2461722.500000000, A.D. 2027-Nov-13 00:00:00.0000, -2.956748661508069E+07, 3.422585936983850E+08, 3.827448431255570E+07,
2461729.500000000, A.D. 2027-Nov-20 00:00:00.0000, -4.127775547102355E+07, 3.442422697912127E+08, 3.741244389336526E+07,
2461736.500000000, A.D. 2027-Nov-27 00:00:00.0000, -5.294085018510235E+07, 3.458318598987437E+08, 3.650756798982653E+07,
2461743.500000000, A.D. 2027-Dec-04 00:00:00.0000, -6.454497714664240E+07, 3.470357125281317E+08, 3.556196645176722E+07,
2461750.500000000, A.D. 2027-Dec-11 00:00:00.0000, -7.607901305257234E+07, 3.478622601399886E+08, 3.457769623856036E+07,
2461757.500000000, A.D. 2027-Dec-18 00:00:00.0000, -8.753247194052610E+07, 3.483199879689355E+08, 3.355676075859162E+07,
2461764.500000000, A.D. 2027-Dec-25 00:00:00.0000, -9.889547286972931E+07, 3.484174065847659E+08, 3.250110961222637E+07,
2461771.500000000, A.D. 2028-Jan-01 00:00:00.0000, -1.101587083945002E+08, 3.481630278619963E+08, 3.141263867618160E+07,
$$EOE